NORAD_CAT_ID,OBJECT_NAME,OBJECT_TYPE,EPOCH,MEAN_MOTION,ECCENTRICITY,INCLINATION,RA_OF_ASC_NODE,ARG_OF_PERICENTER,MEAN_ANOMALY,BSTAR,MEAN_MOTION_DOT,MEAN_MOTION_DDOT,TLE_LINE0,TLE_LINE1,TLE_LINE2,SEMIMAJOR_AXIS,PERIOD,APOGEE,PERIGEE,DECAYED
53790.0,STARLINK-4734,PAYLOAD,2024-02-29 05:22:21,15.08840258,0.0001441,53.2183,353.5916,87.8007,272.315,0.00012729,1.738e-05,0.0,0 STARLINK-4734,1 53790U 22111T   24060.22385697  .00001738  00000-0  12729-3 0  9998,2 53790  53.2183 353.5916 0001441  87.8007 272.3150 15.08840258 82067,6917.88,95.438,540.741,538.748,0.0
53790.0,STARLINK-4734,PAYLOAD,2024-02-29 22:51:35,15.08844315,0.0001468,53.2185,350.32,93.743,266.373,0.0001615,2.284e-05,0.0,0 STARLINK-4734,1 53790U 22111T   24060.95249562  .00002284  00000-0  16150-3 0  9997,2 53790  53.2185 350.3200 0001468  93.7430 266.3730 15.08844315 82172,6917.867,95.437,540.748,538.717,0.0
53790.0,STARLINK-4734,PAYLOAD,2024-03-01 02:02:21,15.08848571,0.0001525,53.2189,349.7241,97.7874,262.3291,0.00021562,3.146e-05,0.0,0 STARLINK-4734,1 53790U 22111T   24061.08497363  .00003146  00000-0  21562-3 0  9997,2 53790  53.2189 349.7241 0001525  97.7874 262.3291 15.08848571 81381,6917.854,95.437,540.774,538.664,0.0
53790.0,STARLINK-4734,PAYLOAD,2024-03-01 11:34:40,15.08844639,0.0001551,53.2191,347.9409,91.1587,268.9583,0.00015455,2.173e-05,0.0,0 STARLINK-4734,1 53790U 22111T   24061.48241550  .00002173  00000-0  15455-3 0  9999,2 53790  53.2191 347.9409 0001551  91.1587 268.9583 15.08844639 82252,6917.866,95.437,540.804,538.658,0.0
53790.0,STARLINK-4734,PAYLOAD,2024-03-02 00:17:45,15.08843415,0.0001523,53.2185,345.5619,91.447,268.6696,0.00014808,2.07e-05,0.0,0 STARLINK-4734,1 53790U 22111T   24062.01233518  .00002070  00000-0  14808-3 0  9991,2 53790  53.2185 345.5619 0001523  91.4470 268.6696 15.08843415 82337,6917.87,95.437,540.789,538.681,0.0
53790.0,STARLINK-4734,PAYLOAD,2024-03-02 22:33:09,15.08842891,0.0001337,53.2177,341.4009,92.7688,267.3457,-7.8087e-05,-1.531e-05,0.0,0 STARLINK-4734,1 53790U 22111T   24062.93969394 -.00001531  00000-0 -78087-4 0  9993,2 53790  53.2177 341.4009 0001337  92.7688 267.3457 15.08842891 82477,6917.872,95.437,540.661,538.812,0.0
53790.0,STARLINK-4734,PAYLOAD,2024-03-03 03:19:20,15.0882278,0.0001555,53.2183,340.509,87.8658,272.2513,0.00064516,9.99e-05,0.0,0 STARLINK-4734,1 53790U 22111T   24063.13842628  .00009990  00000-0  64516-3 0  9992,2 53790  53.2183 340.5090 0001555  87.8658 272.2513 15.08822780 81694,6917.933,95.439,540.874,538.722,0.0
53790.0,STARLINK-4734,PAYLOAD,2024-03-03 11:16:15,15.08835968,0.000155,53.218,339.0212,88.5824,271.5346,-2.0647e-06,-3.21e-06,0.0,0 STARLINK-4734,1 53790U 22111T   24063.46961931 -.00000321  00000-0 -20647-5 0  9997,2 53790  53.2180 339.0212 0001550  88.5824 271.5346 15.08835968 81742,6917.893,95.438,540.83,538.685,0.0
53790.0,STARLINK-4734,PAYLOAD,2024-03-04 03:10:05,15.08861451,0.0001276,53.2178,336.0481,94.7455,265.3683,0.00039012,5.93e-05,0.0,0 STARLINK-4734,1 53790U 22111T   24064.13200567  .00005930  00000-0  39012-3 0  9996,2 53790  53.2178 336.0481 0001276  94.7455 265.3683 15.08861451 81840,6917.815,95.436,540.563,538.797,0.0
53790.0,STARLINK-4734,PAYLOAD,2024-03-04 11:07:01,15.08847615,9.5e-05,53.218,334.5614,86.9031,273.207,0.00016569,2.351e-05,0.0,0 STARLINK-4734,1 53790U 22111T   24064.46320982  .00002351  00000-0  16569-3 0  9992,2 53790  53.2180 334.5614 0000950  86.9031 273.2070 15.08847615 81894,6917.857,95.437,540.379,539.065,0.0
53790.0,STARLINK-4734,PAYLOAD,2024-03-04 22:14:43,15.08846543,0.0001267,53.2177,332.4792,80.1951,279.9185,7.9327e-05,9.75e-06,0.0,0 STARLINK-4734,1 53790U 22111T   24064.92689007  .00000975  00000-0  79327-4 0  9991,2 53790  53.2177 332.4792 0001267  80.1951 279.9185 15.08846543 82770,6917.86,95.437,540.602,538.849,0.0
53790.0,STARLINK-4734,PAYLOAD,2024-03-05 01:25:29,15.08855314,0.0001335,53.218,331.8851,77.7773,282.3368,0.00022358,3.274e-05,0.0,0 STARLINK-4734,1 53790U 22111T   24065.05936396  .00003274  00000-0  22358-3 0  9998,2 53790  53.2180 331.8851 0001335  77.7773 282.3368 15.08855314 82792,6917.834,95.437,540.622,538.775,0.0
53790.0,STARLINK-4734,PAYLOAD,2024-03-05 17:19:21,15.08833822,0.0001632,53.2186,328.911,84.5739,275.5439,-7.9517e-05,-1.553e-05,0.0,0 STARLINK-4734,1 53790U 22111T   24065.72177853 -.00001553  00000-0 -79517-4 0  9997,2 53790  53.2186 328.9110 0001632  84.5739 275.5439 15.08833822 82086,6917.899,95.438,540.893,538.635,0.0
53790.0,STARLINK-4734,PAYLOAD,2024-03-06 12:23:59,15.08840021,0.0001259,53.2166,325.3432,82.4921,277.6214,-4.8494e-05,-1.06e-05,0.0,0 STARLINK-4734,1 53790U 22111T   24066.51665675 -.00001060  00000-0 -48494-4 0  9992,2 53790  53.2166 325.3432 0001259  82.4921 277.6214 15.08840021 83014,6917.88,95.438,540.616,538.874,0.0
53790.0,STARLINK-4734,PAYLOAD,2024-03-06 20:20:55,15.08839838,0.0001438,53.2168,323.8565,75.8685,284.2467,0.00013129,1.802e-05,0.0,0 STARLINK-4734,1 53790U 22111T   24066.84785997  .00001802  00000-0  13129-3 0  9996,2 53790  53.2168 323.8565 0001438  75.8685 284.2467 15.08839838 82251,6917.881,95.438,540.741,538.751,0.0
53790.0,STARLINK-4734,PAYLOAD,2024-03-07 02:42:27,15.08843401,0.0001568,53.2174,322.6647,85.8098,274.3074,0.00023109,3.392e-05,0.0,0 STARLINK-4734,1 53790U 22111T   24067.11281819  .00003392  00000-0  23109-3 0  9996,2 53790  53.2174 322.6647 0001568  85.8098 274.3074 15.08843401 83109,6917.87,95.437,540.82,538.65,0.0
53790.0,STARLINK-4734,PAYLOAD,2024-03-09 02:24:01,15.08843152,0.0001349,53.217,313.7445,86.542,273.5727,1.6928e-05,-1.8e-07,0.0,0 STARLINK-4734,1 53790U 22111T   24069.10002172 -.00000018  00000-0  16928-4 0  9995,2 53790  53.2170 313.7445 0001349  86.5420 273.5727 15.08843152 82597,6917.871,95.437,540.669,538.803,0.0
53790.0,STARLINK-4734,PAYLOAD,2024-03-09 08:45:33,15.08852465,0.0001322,53.2176,312.5574,89.0144,271.0999,0.0001241,1.688e-05,0.0,0 STARLINK-4734,1 53790U 22111T   24069.36497613  .00001688  00000-0  12410-3 0  9995,2 53790  53.2176 312.5574 0001322  89.0144 271.0999 15.08852465 82631,6917.842,95.437,540.622,538.793,0.0
53790.0,STARLINK-4734,PAYLOAD,2024-03-09 16:42:30,15.08846298,0.0002223,53.2168,311.0702,88.3105,271.8142,0.00022273,3.259e-05,0.0,0 STARLINK-4734,1 53790U 22111T   24069.69618117  .00003259  00000-0  22273-3 0  9999,2 53790  53.2168 311.0702 0002223  88.3105 271.8142 15.08846298 83499,6917.861,95.437,541.264,538.188,0.0
53790.0,STARLINK-4734,PAYLOAD,2024-03-10 08:36:21,15.08841738,0.000165,53.2159,308.0964,91.7516,268.3665,9.9877e-05,1.302e-05,0.0,0 STARLINK-4734,1 53790U 22111T   24070.35858187  .00001302  00000-0  99877-4 0  9999,2 53790  53.2159 308.0964 0001650  91.7516 268.3665 15.08841738 82788,6917.875,95.437,540.882,538.599,0.0
53790.0,STARLINK-4734,PAYLOAD,2024-03-10 21:19:27,15.0882991,0.000148,53.2177,305.7174,90.434,269.6822,-0.00019314,-3.36e-05,0.0,0 STARLINK-4734,1 53790U 22111T   24070.88850868 -.00003360  00000-0 -19314-3 0  9990,2 53790  53.2177 305.7174 0001480  90.4340 269.6822 15.08829910 82863,6917.911,95.438,540.8,538.752,0.0
53790.0,STARLINK-4734,PAYLOAD,2024-03-10 22:54:50,15.08829495,0.000152,53.2168,305.4221,97.9086,262.2079,-0.00014049,-2.523e-05,0.0,0 STARLINK-4734,1 53790U 22111T   24070.95474914 -.00002523  00000-0 -14049-3 0  9992,2 53790  53.2168 305.4221 0001520  97.9086 262.2079 15.08829495 83689,6917.912,95.438,540.829,538.726,0.0
53790.0,STARLINK-4734,PAYLOAD,2024-03-11 08:27:08,15.08840923,0.0001269,53.2175,303.637,89.9228,270.191,-0.00012221,-2.232e-05,0.0,0 STARLINK-4734,1 53790U 22111T   24071.35218448 -.00002232  00000-0 -12221-3 0  9992,2 53790  53.2175 303.6370 0001269  89.9228 270.1910 15.08840923 82939,6917.878,95.437,540.62,538.865,0.0
53790.0,STARLINK-4734,PAYLOAD,2024-03-12 14:39:28,15.08840332,0.0001802,53.2155,297.9871,89.0833,271.0366,0.00029199,4.362e-05,0.0,0 STARLINK-4734,1 53790U 22111T   24072.61075048  .00004362  00000-0  29199-3 0  9995,2 53790  53.2155 297.9871 0001802  89.0833 271.0366 15.08840332 83125,6917.879,95.438,540.991,538.498,0.0
53790.0,STARLINK-4734,PAYLOAD,2024-03-12 21:01:01,15.08834965,0.000143,53.2161,296.7965,91.0802,269.0354,0.0001675,2.378e-05,0.0,0 STARLINK-4734,1 53790U 22111T   24072.87571266  .00002378  00000-0  16750-3 0  9990,2 53790  53.2161 296.7965 0001430  91.0802 269.0354 15.08834965 83971,6917.896,95.438,540.75,538.772,0.0
53790.0,STARLINK-4734,PAYLOAD,2024-03-13 20:51:47,15.08850377,0.0001272,53.213,292.3336,89.6674,270.4464,-7.6622e-05,-1.507e-05,0.0,0 STARLINK-4734,1 53790U 22111T   24073.86930253 -.00001507  00000-0 -76622-4 0  9995,2 53790  53.2130 292.3336 0001272  89.6674 270.4464 15.08850377 83316,6917.849,95.437,540.594,538.834,0.0
53790.0,STARLINK-4734,PAYLOAD,2024-03-14 00:02:34,15.08831117,0.0001389,53.2131,291.7378,106.2561,253.8584,0.00049738,7.635e-05,0.0,0 STARLINK-4734,1 53790U 22111T   24074.00179164  .00007635  00000-0  49738-3 0  9991,2 53790  53.2131 291.7378 0001389 106.2561 253.8584 15.08831117 83337,6917.908,95.438,540.733,538.812,0.0
53790.0,STARLINK-4734,PAYLOAD,2024-03-14 20:42:35,15.08838995,0.0001301,53.2142,287.8724,110.1526,249.9606,8.2248e-05,1.021e-05,0.0,0 STARLINK-4734,1 53790U 22111T   24074.86291019  .00001021  00000-0  82248-4 0  9996,2 53790  53.2142 287.8724 0001301 110.1526 249.9606 15.08838995 84275,6917.883,95.438,540.648,538.848,0.0
53790.0,STARLINK-4734,PAYLOAD,2024-03-14 23:53:21,15.08840169,0.0001314,53.214,287.2772,113.4831,246.63,9.6331e-05,1.246e-05,0.0,0 STARLINK-4734,1 53790U 22111T   24074.99538958  .00001246  00000-0  96331-4 0  9993,2 53790  53.2140 287.2772 0001314 113.4831 246.6300 15.08840169 83482,6917.88,95.438,540.654,538.836,0.0
53790.0,STARLINK-4734,PAYLOAD,2024-03-15 23:44:08,15.08849777,9.61e-05,53.2151,282.8166,115.263,244.8462,-9.0679e-05,-1.731e-05,0.0,0 STARLINK-4734,1 53790U 22111T   24075.98898447 -.00001731  00000-0 -90679-4 0  9995,2 53790  53.2151 282.8166 0000961 115.2630 244.8462 15.08849777 84446,6917.851,95.437,540.38,539.051,0.0
